[{"OBJECT_NAME":"STARLINK-31552","OBJECT_ID":"2024-060J","EPOCH":"2026-01-08T01:00:50.650560","MEAN_MOTION":15.27588154,"ECCENTRICITY":0.00012908,"INCLINATION":43.0007,"RA_OF_ASC_NODE":242.7206,"ARG_OF_PERICENTER":270.7346,"MEAN_ANOMALY":89.3357,"EPHEMERIS_TYPE":0,"CLASSIFICATION_TYPE":"U","NORAD_CAT_ID":59356,"ELEMENT_SET_NO":999,"REV_AT_EPOCH":10078,"BSTAR":0.0001037564,"MEAN_MOTION_DOT":2.595e-5,"MEAN_MOTION_DDOT":0},{"OBJECT_NAME":"STARLINK-31557","OBJECT_ID":"2024-060K","EPOCH":"2026-01-08T00:52:04.502208","MEAN_MOTION":15.27580773,"ECCENTRICITY":0.00013724,"INCLINATION":43.0008,"RA_OF_ASC_NODE":238.3017,"ARG_OF_PERICENTER":246.5083,"MEAN_ANOMALY":113.5625,"EPHEMERIS_TYPE":0,"CLASSIFICATION_TYPE":"U","NORAD_CAT_ID":59357,"ELEMENT_SET_NO":999,"REV_AT_EPOCH":10083,"BSTAR":8.734528e-6,"MEAN_MOTION_DOT":-2.2e-7,"MEAN_MOTION_DDOT":0},{"OBJECT_NAME":"STARLINK-31559","OBJECT_ID":"2024-060L","EPOCH":"2026-01-08T01:43:11.713440","MEAN_MOTION":15.27526139,"ECCENTRICITY":0.00015381,"INCLINATION":43.0004,"RA_OF_ASC_NODE":242.0607,"ARG_OF_PERICENTER":239.3764,"MEAN_ANOMALY":120.6936,"EPHEMERIS_TYPE":0,"CLASSIFICATION_TYPE":"U","NORAD_CAT_ID":59358,"ELEMENT_SET_NO":999,"REV_AT_EPOCH":10079,"BSTAR":0.00043493679,"MEAN_MOTION_DOT":0.00011706,"MEAN_MOTION_DDOT":0},{"OBJECT_NAME":"STARLINK-31501","OBJECT_ID":"2024-060M","EPOCH":"2026-01-08T00:49:44.030496","MEAN_MOTION":15.2758671,"ECCENTRICITY":9.448e-5,"INCLINATION":42.9997,"RA_OF_ASC_NODE":242.6483,"ARG_OF_PERICENTER":256.3298,"MEAN_ANOMALY":103.7448,"EPHEMERIS_TYPE":0,"CLASSIFICATION_TYPE":"U","NORAD_CAT_ID":59359,"ELEMENT_SET_NO":999,"REV_AT_EPOCH":10078,"BSTAR":0.00010009126,"MEAN_MOTION_DOT":2.494e-5,"MEAN_MOTION_DDOT":0},{"OBJECT_NAME":"STARLINK-31549","OBJECT_ID":"2024-060N","EPOCH":"2026-01-07T23:52:21.246240","MEAN_MOTION":15.27638314,"ECCENTRICITY":0.00015622,"INCLINATION":43.0005,"RA_OF_ASC_NODE":242.3434,"ARG_OF_PERICENTER":257.1055,"MEAN_ANOMALY":102.9623,"EPHEMERIS_TYPE":0,"CLASSIFICATION_TYPE":"U","NORAD_CAT_ID":59360,"ELEMENT_SET_NO":999,"REV_AT_EPOCH":10078,"BSTAR":-0.0004104729,"MEAN_MOTION_DOT":-0.0001156,"MEAN_MOTION_DDOT":0},{"OBJECT_NAME":"STARLINK-31560","OBJECT_ID":"2024-060P","EPOCH":"2026-01-08T00:40:29.819424","MEAN_MOTION":15.27590603,"ECCENTRICITY":0.00012388,"INCLINATION":43.0076,"RA_OF_ASC_NODE":242.5924,"ARG_OF_PERICENTER":303.4064,"MEAN_ANOMALY":56.6669,"EPHEMERIS_TYPE":0,"CLASSIFICATION_TYPE":"U","NORAD_CAT_ID":59361,"ELEMENT_SET_NO":999,"REV_AT_EPOCH":10078,"BSTAR":-8.822461e-6,"MEAN_MOTION_DOT":-5.05e-6,"MEAN_MOTION_DDOT":0},{"OBJECT_NAME":"STARLINK-31571","OBJECT_ID":"2024-060Q","EPOCH":"2026-01-08T00:44:10.703616","MEAN_MOTION":15.27578036,"ECCENTRICITY":0.00017742,"INCLINATION":43.0025,"RA_OF_ASC_NODE":242.6115,"ARG_OF_PERICENTER":260.225,"MEAN_ANOMALY":99.8401,"EPHEMERIS_TYPE":0,"CLASSIFICATION_TYPE":"U","NORAD_CAT_ID":59362,"ELEMENT_SET_NO":999,"REV_AT_EPOCH":10078,"BSTAR":7.0577991e-5,"MEAN_MOTION_DOT":1.68e-5,"MEAN_MOTION_DDOT":0},{"OBJECT_NAME":"STARLINK-31553","OBJECT_ID":"2024-060R","EPOCH":"2026-01-08T00:28:55.744896","MEAN_MOTION":15.27571166,"ECCENTRICITY":0.00010833,"INCLINATION":43.002,"RA_OF_ASC_NODE":235.5974,"ARG_OF_PERICENTER":271.2378,"MEAN_ANOMALY":88.8349,"EPHEMERIS_TYPE":0,"CLASSIFICATION_TYPE":"U","NORAD_CAT_ID":59363,"ELEMENT_SET_NO":999,"REV_AT_EPOCH":10086,"BSTAR":4.2216909e-5,"MEAN_MOTION_DOT":9.0e-6,"MEAN_MOTION_DDOT":0},{"OBJECT_NAME":"STARLINK-31547","OBJECT_ID":"2024-060S","EPOCH":"2026-01-08T00:10:54.689952","MEAN_MOTION":15.27582589,"ECCENTRICITY":0.00012918,"INCLINATION":43.0024,"RA_OF_ASC_NODE":231.1954,"ARG_OF_PERICENTER":257.585,"MEAN_ANOMALY":102.4857,"EPHEMERIS_TYPE":0,"CLASSIFICATION_TYPE":"U","NORAD_CAT_ID":59364,"ELEMENT_SET_NO":999,"REV_AT_EPOCH":10091,"BSTAR":-2.7139641e-5,"MEAN_MOTION_DOT":-1.009e-5,"MEAN_MOTION_DDOT":0},{"OBJECT_NAME":"STARLINK-31537","OBJECT_ID":"2024-060T","EPOCH":"2026-01-08T00:55:17.455008","MEAN_MOTION":15.27587768,"ECCENTRICITY":0.00011681,"INCLINATION":43.0016,"RA_OF_ASC_NODE":242.6725,"ARG_OF_PERICENTER":279.8834,"MEAN_ANOMALY":80.1886,"EPHEMERIS_TYPE":0,"CLASSIFICATION_TYPE":"U","NORAD_CAT_ID":59365,"ELEMENT_SET_NO":999,"REV_AT_EPOCH":10078,"BSTAR":-3.3089748e-5,"MEAN_MOTION_DOT":-1.173e-5,"MEAN_MOTION_DDOT":0},{"OBJECT_NAME":"STARLINK-31451","OBJECT_ID":"2024-060U","EPOCH":"2026-01-08T01:20:59.379648","MEAN_MOTION":15.27564792,"ECCENTRICITY":0.00013694,"INCLINATION":43.0002,"RA_OF_ASC_NODE":241.9442,"ARG_OF_PERICENTER":263.1144,"MEAN_ANOMALY":96.9551,"EPHEMERIS_TYPE":0,"CLASSIFICATION_TYPE":"U","NORAD_CAT_ID":59366,"ELEMENT_SET_NO":999,"REV_AT_EPOCH":10079,"BSTAR":0.00012712362,"MEAN_MOTION_DOT":3.236e-5,"MEAN_MOTION_DDOT":0},{"OBJECT_NAME":"STARLINK-31428","OBJECT_ID":"2024-060V","EPOCH":"2026-01-08T01:37:36.967008","MEAN_MOTION":15.27586787,"ECCENTRICITY":0.00015247,"INCLINATION":42.9995,"RA_OF_ASC_NODE":242.0292,"ARG_OF_PERICENTER":271.2462,"MEAN_ANOMALY":88.8215,"EPHEMERIS_TYPE":0,"CLASSIFICATION_TYPE":"U","NORAD_CAT_ID":59367,"ELEMENT_SET_NO":999,"REV_AT_EPOCH":10079,"BSTAR":-0.00032048942,"MEAN_MOTION_DOT":-9.072e-5,"MEAN_MOTION_DDOT":0},{"OBJECT_NAME":"STARLINK-31419","OBJECT_ID":"2024-060W","EPOCH":"2026-01-08T01:46:53.040000","MEAN_MOTION":15.27595375,"ECCENTRICITY":0.00010735,"INCLINATION":42.9998,"RA_OF_ASC_NODE":242.0778,"ARG_OF_PERICENTER":281.5834,"MEAN_ANOMALY":78.4897,"EPHEMERIS_TYPE":0,"CLASSIFICATION_TYPE":"U","NORAD_CAT_ID":59368,"ELEMENT_SET_NO":999,"REV_AT_EPOCH":10079,"BSTAR":-7.6137597e-5,"MEAN_MOTION_DOT":-2.357e-5,"MEAN_MOTION_DDOT":0},{"OBJECT_NAME":"STARLINK-31583","OBJECT_ID":"2024-060X","EPOCH":"2026-01-08T07:08:13.930944","MEAN_MOTION":15.27599355,"ECCENTRICITY":0.00013956,"INCLINATION":43.0002,"RA_OF_ASC_NODE":229.9267,"ARG_OF_PERICENTER":260.6904,"MEAN_ANOMALY":99.379,"EPHEMERIS_TYPE":0,"CLASSIFICATION_TYPE":"U","NORAD_CAT_ID":59369,"ELEMENT_SET_NO":999,"REV_AT_EPOCH":10095,"BSTAR":-0.00010333727,"MEAN_MOTION_DOT":-3.106e-5,"MEAN_MOTION_DDOT":0},{"OBJECT_NAME":"STARLINK-31461","OBJECT_ID":"2024-060Y","EPOCH":"2026-01-07T23:34:06.002688","MEAN_MOTION":15.27582744,"ECCENTRICITY":0.00011925,"INCLINATION":42.9999,"RA_OF_ASC_NODE":231.8603,"ARG_OF_PERICENTER":262.571,"MEAN_ANOMALY":97.5006,"EPHEMERIS_TYPE":0,"CLASSIFICATION_TYPE":"U","NORAD_CAT_ID":59370,"ELEMENT_SET_NO":999,"REV_AT_EPOCH":10084,"BSTAR":3.6972454e-5,"MEAN_MOTION_DOT":7.56e-6,"MEAN_MOTION_DDOT":0},{"OBJECT_NAME":"STARLINK-31641","OBJECT_ID":"2024-062A","EPOCH":"2026-01-07T18:22:48.958752","MEAN_MOTION":15.30200558,"ECCENTRICITY":0.00011583,"INCLINATION":53.1603,"RA_OF_ASC_NODE":181.4992,"ARG_OF_PERICENTER":102.6141,"MEAN_ANOMALY":257.499,"EPHEMERIS_TYPE":0,"CLASSIFICATION_TYPE":"U","NORAD_CAT_ID":59374,"ELEMENT_SET_NO":999,"REV_AT_EPOCH":10029,"BSTAR":2.8447978e-5,"MEAN_MOTION_DOT":4.84e-6,"MEAN_MOTION_DDOT":0}]
