STARLINK-31552          
1 59356U 24060J   26008.04225290  .00002595  00000+0  10376-3 0  9990
2 59356  43.0007 242.7206 0001290 270.7346  89.3357 15.27588154100785
STARLINK-31557          
1 59357U 24060K   26008.03616322 -.00000022  00000+0  87345-5 0  9996
2 59357  43.0008 238.3017 0001372 246.5083 113.5625 15.27580773100831
STARLINK-31559          
1 59358U 24060L   26008.07166335  .00011706  00000+0  43494-3 0  9990
2 59358  43.0004 242.0607 0001538 239.3764 120.6936 15.27526139100790
STARLINK-31501          
1 59359U 24060M   26008.03453739  .00002494  00000+0  10009-3 0  9994
2 59359  42.9997 242.6483 0000944 256.3298 103.7448 15.27586710100789
STARLINK-31549          
1 59360U 24060N   26007.99469035 -.00011560  00000+0 -41047-3 0  9998
2 59360  43.0005 242.3434 0001562 257.1055 102.9623 15.27638314100787
STARLINK-31560          
1 59361U 24060P   26008.02812291 -.00000505  00000+0 -88225-5 0  9998
2 59361  43.0076 242.5924 0001238 303.4064  56.6669 15.27590603100780
STARLINK-31571          
1 59362U 24060Q   26008.03067944  .00001680  00000+0  70578-4 0  9991
2 59362  43.0025 242.6115 0001774 260.2250  99.8401 15.27578036100789
STARLINK-31553          
1 59363U 24060R   26008.02008964  .00000900  00000+0  42217-4 0  9991
2 59363  43.0020 235.5974 0001083 271.2378  88.8349 15.27571166100860
STARLINK-31547          
1 59364U 24060S   26008.00757743 -.00001009  00000+0 -27140-4 0  9997
2 59364  43.0024 231.1954 0001291 257.5850 102.4857 15.27582589100912
STARLINK-31537          
1 59365U 24060T   26008.03839647 -.00001173  00000+0 -33090-4 0  9998
2 59365  43.0016 242.6725 0001168 279.8834  80.1886 15.27587768100782
STARLINK-31451          
1 59366U 24060U   26008.05624282  .00003236  00000+0  12712-3 0  9995
2 59366  43.0002 241.9442 0001369 263.1144  96.9551 15.27564792100796
STARLINK-31428          
1 59367U 24060V   26008.06778897 -.00009072  00000+0 -32049-3 0  9990
2 59367  42.9995 242.0292 0001524 271.2462  88.8215 15.27586787100792
STARLINK-31419          
1 59368U 24060W   26008.07422500 -.00002357  00000+0 -76138-4 0  9996
2 59368  42.9998 242.0778 0001073 281.5834  78.4897 15.27595375100795
STARLINK-31583          
1 59369U 24060X   26008.29738346 -.00003106  00000+0 -10334-3 0  9997
2 59369  43.0002 229.9267 0001395 260.6904  99.3790 15.27599355100958
STARLINK-31461          
1 59370U 24060Y   26007.98201392  .00000756  00000+0  36972-4 0  9993
2 59370  42.9999 231.8603 0001192 262.5710  97.5006 15.27582744100842
STARLINK-31641          
1 59374U 24062A   26007.76584443  .00000484  00000+0  28448-4 0  9993
2 59374  53.1603 181.4992 0001158 102.6141 257.4990 15.30200558100299
